{"type": "FeatureCollection", "features": [ {"type": "Feature", "properties": {"norad_id": 37216, "name": "COSMO-SKYMED 4", "group": "resource", "lat": -64.71990646381538, "lon": 179.62511261888307, "alt_km": 630.5416837899029, "timestamp": "2025-12-07T03:52:32.126803+00:00", "meta": {"OBJECT_NAME": "COSMO-SKYMED 4", "OBJECT_ID": "2010-060A", "EPOCH": "2025-12-06T13:35:25.045440", "MEAN_MOTION": 14.821571, "ECCENTRICITY": 0.00013612, "INCLINATION": 97.8814, "RA_OF_ASC_NODE": 161.9826, "ARG_OF_PERICENTER": 82.8865, "MEAN_ANOMALY": 277.2503, "EPHEMERIS_TYPE": 0, "CLASSIFICATION_TYPE": "U", "NORAD_CAT_ID": 37216, "ELEMENT_SET_NO": 999, "REV_AT_EPOCH": 81603, "BSTAR": 0.00014708447, "MEAN_MOTION_DOT": 1.119e-05, "MEAN_MOTION_DDOT": 0}, "tle": {"line1": "1 37216U 10060A   25340.56626210  .00001119  00000+0  14708-3 0  9992", "line2": "2 37216  97.8814 161.9826 0001361  82.8865 277.2503 14.82157100816032"}}, "geometry": {"type": "Point", "coordinates": [179.62511261888307, -64.71990646381538]}}, {"type": "Feature", "properties": {"norad_id": 37387, "name": "RESOURCESAT-2", "group": "resource", "lat": 32.746371707959106, "lon": 39.02816524001469, "alt_km": 813.5327864288965, "timestamp": "2025-12-07T03:52:32.126814+00:00", "meta": {"OBJECT_NAME": "RESOURCESAT-2", "OBJECT_ID": "2011-015A", "EPOCH": "2025-12-06T14:12:23.681664", "MEAN_MOTION": 14.21593608, "ECCENTRICITY": 0.00066804, "INCLINATION": 98.7885, "RA_OF_ASC_NODE": 44.1712, "ARG_OF_PERICENTER": 58.5035, "MEAN_ANOMALY": 301.6794, "EPHEMERIS_TYPE": 0, "CLASSIFICATION_TYPE": "U", "NORAD_CAT_ID": 37387, "ELEMENT_SET_NO": 999, "REV_AT_EPOCH": 75881, "BSTAR": 0.0001712235, "MEAN_MOTION_DOT": 3.31e-06, "MEAN_MOTION_DDOT": 0}, "tle": {"line1": "1 37387U 11015A   25340.59194076  .00000331  00000+0  17122-3 0  9993", "line2": "2 37387  98.7885  44.1712 0006680  58.5035 301.6794 14.21593608758818"}}, "geometry": {"type": "Point", "coordinates": [39.02816524001469, 32.746371707959106]}}, {"type": "Feature", "properties": {"norad_id": 37781, "name": "HAIYANG-2A", "group": "resource", "lat": -38.030222795120565, "lon": 154.7881946807103, "alt_km": 975.0624371834201, "timestamp": "2025-12-07T03:52:32.126824+00:00", "meta": {"OBJECT_NAME": "HAIYANG-2A", "OBJECT_ID": "2011-043A", "EPOCH": "2025-12-06T14:37:42.348288", "MEAN_MOTION": 13.78834604, "ECCENTRICITY": 0.00016539, "INCLINATION": 99.3377, "RA_OF_ASC_NODE": 341.6385, "ARG_OF_PERICENTER": 93.1848, "MEAN_ANOMALY": 266.9492, "EPHEMERIS_TYPE": 0, "CLASSIFICATION_TYPE": "U", "NORAD_CAT_ID": 37781, "ELEMENT_SET_NO": 999, "REV_AT_EPOCH": 72014, "BSTAR": 4.7154944e-05, "MEAN_MOTION_DOT": 4e-08, "MEAN_MOTION_DDOT": 0}, "tle": {"line1": "1 37781U 11043A   25340.60951792  .00000004  00000+0  47155-4 0  9997", "line2": "2 37781  99.3377 341.6385 0001653  93.1848 266.9492 13.78834604720140"}}, "geometry": {"type": "Point", "coordinates": [154.7881946807103, -38.030222795120565]}}, {"type": "Feature", "properties": {"norad_id": 37791, "name": "RASAT", "group": "resource", "lat": -10.762799986285609, "lon": 72.04662426089317, "alt_km": 672.7242528697152, "timestamp": "2025-12-07T03:52:32.126835+00:00", "meta": {"OBJECT_NAME": "RASAT", "OBJECT_ID": "2011-044D", "EPOCH": "2025-12-06T13:28:35.158656", "MEAN_MOTION": 14.67896449, "ECCENTRICITY": 0.00219501, "INCLINATION": 98.0657, "RA_OF_ASC_NODE": 69.911, "ARG_OF_PERICENTER": 83.681, "MEAN_ANOMALY": 337.2479, "EPHEMERIS_TYPE": 0, "CLASSIFICATION_TYPE": "U", "NORAD_CAT_ID": 37791, "ELEMENT_SET_NO": 999, "REV_AT_EPOCH": 76492, "BSTAR": 0.00023037029, "MEAN_MOTION_DOT": 1.273e-05, "MEAN_MOTION_DDOT": 0}, "tle": {"line1": "1 37791U 11044D   25340.56151804  .00001273  00000+0  23037-3 0  9991", "line2": "2 37791  98.0657  69.9110 0021950  83.6810 337.2479 14.67896449764924"}}, "geometry": {"type": "Point", "coordinates": [72.04662426089317, -10.762799986285609]}}, {"type": "Feature", "properties": {"norad_id": 37841, "name": "SRMSAT", "group": "resource", "lat": 19.000597945112116, "lon": -109.7641622049416, "alt_km": 855.9768663569339, "timestamp": "2025-12-07T03:52:32.126846+00:00", "meta": {"OBJECT_NAME": "SRMSAT", "OBJECT_ID": "2011-058D", "EPOCH": "2025-12-06T15:53:29.180256", "MEAN_MOTION": 14.11508311, "ECCENTRICITY": 0.00117143, "INCLINATION": 19.9699, "RA_OF_ASC_NODE": 144.7353, "ARG_OF_PERICENTER": 245.9297, "MEAN_ANOMALY": 198.7661, "EPHEMERIS_TYPE": 0, "CLASSIFICATION_TYPE": "U", "NORAD_CAT_ID": 37841, "ELEMENT_SET_NO": 999, "REV_AT_EPOCH": 73058, "BSTAR": 0.00015414847, "MEAN_MOTION_DOT": 5.49e-06, "MEAN_MOTION_DDOT": 0}, "tle": {"line1": "1 37841U 11058D   25340.66214329  .00000549  00000+0  15415-3 0  9991", "line2": "2 37841  19.9699 144.7353 0011714 245.9297 198.7661 14.11508311730583"}}, "geometry": {"type": "Point", "coordinates": [-109.7641622049416, 19.000597945112116]}}, {"type": "Feature", "properties": {"norad_id": 38012, "name": "PLEIADES 1A", "group": "resource", "lat": -27.80531130208086, "lon": 58.36813975307611, "alt_km": 703.911335554877, "timestamp": "2025-12-07T03:52:32.126857+00:00", "meta": {"OBJECT_NAME": "PLEIADES 1A", "OBJECT_ID": "2011-076F", "EPOCH": "2025-12-06T15:33:36.408384", "MEAN_MOTION": 14.58552729, "ECCENTRICITY": 0.00013629, "INCLINATION": 98.1832, "RA_OF_ASC_NODE": 53.5108, "ARG_OF_PERICENTER": 79.5606, "MEAN_ANOMALY": 79.6286, "EPHEMERIS_TYPE": 0, "CLASSIFICATION_TYPE": "U", "NORAD_CAT_ID": 38012, "ELEMENT_SET_NO": 999, "REV_AT_EPOCH": 74392, "BSTAR": 0.0001975916, "MEAN_MOTION_DOT": 8.73e-06, "MEAN_MOTION_DDOT": 0}, "tle": {"line1": "1 38012U 11076F   25340.64833806  .00000873  00000+0  19759-3 0  9992", "line2": "2 38012  98.1832  53.5108 0001362  79.5606  79.6286 14.58552729743925"}}, "geometry": {"type": "Point", "coordinates": [58.36813975307611, -27.80531130208086]}}, {"type": "Feature", "properties": {"norad_id": 38038, "name": "ZIYUAN 1-02C (ZY 1-02C)", "group": "resource", "lat": -66.69436532165928, "lon": 67.42492089914785, "alt_km": 776.0198322702354, "timestamp": "2025-12-07T03:52:32.126868+00:00", "meta": {"OBJECT_NAME": "ZIYUAN 1-02C (ZY 1-02C)", "OBJECT_ID": "2011-079A", "EPOCH": "2025-12-06T15:33:04.323744", "MEAN_MOTION": 14.38001986, "ECCENTRICITY": 0.00069451, "INCLINATION": 98.4343, "RA_OF_ASC_NODE": 46.7739, "ARG_OF_PERICENTER": 155.3149, "MEAN_ANOMALY": 359.6438, "EPHEMERIS_TYPE": 0, "CLASSIFICATION_TYPE": "U", "NORAD_CAT_ID": 38038, "ELEMENT_SET_NO": 999, "REV_AT_EPOCH": 73153, "BSTAR": 0.00034054212, "MEAN_MOTION_DOT": 9.87e-06, "MEAN_MOTION_DDOT": 0}, "tle": {"line1": "1 38038U 11079A   25340.64796671  .00000987  00000+0  34054-3 0  9992", "line2": "2 38038  98.4343  46.7739 0006945 155.3149 359.6438 14.38001986731530"}}, "geometry": {"type": "Point", "coordinates": [67.42492089914785, -66.69436532165928]}}, {"type": "Feature", "properties": {"norad_id": 38046, "name": "ZIYUAN 3-1 (ZY 3-1)", "group": "resource", "lat": 0.4050648526172925, "lon": 47.40229218940423, "alt_km": 367.73846180356395, "timestamp": "2025-12-07T03:52:32.126878+00:00", "meta": {"OBJECT_NAME": "ZIYUAN 3-1 (ZY 3-1)", "OBJECT_ID": "2012-001A", "EPOCH": "2025-12-06T15:36:59.764608", "MEAN_MOTION": 15.67420202, "ECCENTRICITY": 0.00021038, "INCLINATION": 97.1762, "RA_OF_ASC_NODE": 46.9313, "ARG_OF_PERICENTER": 18.4566, "MEAN_ANOMALY": 341.6771, "EPHEMERIS_TYPE": 0, "CLASSIFICATION_TYPE": "U", "NORAD_CAT_ID": 38046, "ELEMENT_SET_NO": 999, "REV_AT_EPOCH": 77401, "BSTAR": 0.00086742317, "MEAN_MOTION_DOT": 0.00094466, "MEAN_MOTION_DDOT": 0}, "tle": {"line1": "1 38046U 12001A   25340.65069172  .00094466  00000+0  86742-3 0  9993", "line2": "2 38046  97.1762  46.9313 0002103  18.4566 341.6771 15.67420202774014"}}, "geometry": {"type": "Point", "coordinates": [47.40229218940423, 0.4050648526172925]}}, {"type": "Feature", "properties": {"norad_id": 38338, "name": "ARIRANG-3 (KOMPSAT-3)", "group": "resource", "lat": 13.538801095219084, "lon": 117.73122713291416, "alt_km": 692.7729182685653, "timestamp": "2025-12-07T03:52:32.126889+00:00", "meta": {"OBJECT_NAME": "ARIRANG-3 (KOMPSAT-3)", "OBJECT_ID": "2012-025B", "EPOCH": "2025-12-06T13:58:28.386336", "MEAN_MOTION": 14.61700049, "ECCENTRICITY": 0.00057964, "INCLINATION": 98.3314, "RA_OF_ASC_NODE": 295.1256, "ARG_OF_PERICENTER": 358.6287, "MEAN_ANOMALY": 1.4896, "EPHEMERIS_TYPE": 0, "CLASSIFICATION_TYPE": "U", "NORAD_CAT_ID": 38338, "ELEMENT_SET_NO": 999, "REV_AT_EPOCH": 72320, "BSTAR": 0.00024536074, "MEAN_MOTION_DOT": 1.174e-05, "MEAN_MOTION_DDOT": 0}, "tle": {"line1": "1 38338U 12025B   25340.58227299  .00001174  00000+0  24536-3 0  9998", "line2": "2 38338  98.3314 295.1256 0005796 358.6287   1.4896 14.61700049723205"}}, "geometry": {"type": "Point", "coordinates": [117.73122713291416, 13.538801095219084]}}, {"type": "Feature", "properties": {"norad_id": 38709, "name": "EXACTVIEW-1 (ADS-1B)", "group": "resource", "lat": -1.8212324202439525, "lon": -90.85326030765025, "alt_km": 819.7918284346879, "timestamp": "2025-12-07T03:52:32.126900+00:00", "meta": {"OBJECT_NAME": "EXACTVIEW-1 (ADS-1B)", "OBJECT_ID": "2012-039C", "EPOCH": "2025-12-06T06:48:08.630208", "MEAN_MOTION": 14.24903906, "ECCENTRICITY": 0.0011011, "INCLINATION": 98.9635, "RA_OF_ASC_NODE": 88.5381, "ARG_OF_PERICENTER": 12.6195, "MEAN_ANOMALY": 347.5257, "EPHEMERIS_TYPE": 0, "CLASSIFICATION_TYPE": "U", "NORAD_CAT_ID": 38709, "ELEMENT_SET_NO": 999, "REV_AT_EPOCH": 69523, "BSTAR": 0.00016500663, "MEAN_MOTION_DOT": 3.39e-06, "MEAN_MOTION_DDOT": 0}, "tle": {"line1": "1 38709U 12039C   25340.28343322  .00000339  00000+0  16501-3 0  9993", "line2": "2 38709  98.9635  88.5381 0011011  12.6195 347.5257 14.24903906695236"}}, "geometry": {"type": "Point", "coordinates": [-90.85326030765025, -1.8212324202439525]}}]}